[{"OBJECT_NAME":"STARLINK-35716","OBJECT_ID":"2025-303AE","EPOCH":"2026-03-09T21:47:40.242624","MEAN_MOTION":15.2758627,"ECCENTRICITY":0.0001579,"INCLINATION":43.0005,"RA_OF_ASC_NODE":309.9063,"ARG_OF_PERICENTER":312.0083,"MEAN_ANOMALY":48.0634,"EPHEMERIS_TYPE":0,"CLASSIFICATION_TYPE":"U","NORAD_CAT_ID":67191,"ELEMENT_SET_NO":999,"REV_AT_EPOCH":1276,"BSTAR":-0.0010705575,"MEAN_MOTION_DOT":-0.0002961,"MEAN_MOTION_DDOT":0},{"OBJECT_NAME":"OBJECT N","OBJECT_ID":"2019-093N","EPOCH":"2026-03-09T21:41:56.087232","MEAN_MOTION":15.29897693,"ECCENTRICITY":0.0006278,"INCLINATION":98.0505,"RA_OF_ASC_NODE":226.9456,"ARG_OF_PERICENTER":33.3806,"MEAN_ANOMALY":326.7828,"EPHEMERIS_TYPE":0,"CLASSIFICATION_TYPE":"U","NORAD_CAT_ID":44891,"ELEMENT_SET_NO":999,"REV_AT_EPOCH":33957,"BSTAR":0.0010567776,"MEAN_MOTION_DOT":0.00030617,"MEAN_MOTION_DDOT":0}]
